OBJECT_NAME,OBJECT_ID,EPOCH,MEAN_MOTION,ECCENTRICITY,INCLINATION,RA_OF_ASC_NODE,ARG_OF_PERICENTER,MEAN_ANOMALY,EPHEMERIS_TYPE,CLASSIFICATION_TYPE,NORAD_CAT_ID,ELEMENT_SET_NO,REV_AT_EPOCH,BSTAR,MEAN_MOTION_DOT,MEAN_MOTION_DDOT
STARLINK-1676,2020-070AA,2026-05-16T03:33:43.945920,15.65312423,.00093447,53.0382,177.0661,1.0631,359.0401,0,U,46556,999,31047,.57630581E-3,.58362E-3,0
STARLINK-1679,2020-070AB,2026-05-16T07:43:29.474688,15.71589626,.00087309,53.0388,151.9688,36.3470,323.8139,0,U,46557,999,31083,.76168868E-3,.100639E-2,0
STARLINK-1714,2020-070AG,2026-05-16T07:52:01.597728,15.67407924,.00090245,53.0374,147.5066,22.4650,337.6759,0,U,46562,999,31090,.72083339E-3,.79814E-3,0
STARLINK-1730,2020-070AH,2026-05-16T05:50:05.713152,15.55152331,.00062225,53.0252,158.2760,18.0453,342.0776,0,U,46563,999,31074,.12669081E-2,.87496E-3,0
STARLINK-1733,2020-070AJ,2026-05-15T21:07:19.306848,16.18265344,.00041351,53.0221,125.7171,44.4946,315.6423,0,U,46564,999,31114,.11842475E-2,.1908734E-1,.3963315E-2
STARLINK-1735,2020-070AK,2026-05-16T04:50:15.743904,15.75842982,.00115918,53.0343,145.4782,34.1564,326.0198,0,U,46565,999,31091,.74960835E-3,.119489E-2,0
STARLINK-1741,2020-070AM,2026-05-16T06:57:35.688096,15.78845125,.00098997,53.0357,142.9918,37.6592,322.5120,0,U,46567,999,31096,.86260992E-3,.157877E-2,0
STARLINK-1531,2020-070AS,2026-05-15T11:10:04.726272,15.79023785,.00088806,53.0479,168.9286,55.7804,304.4057,0,U,46572,999,31052,.52254503E-3,.95392E-3,0
STARLINK-1677,2020-070AW,2026-05-16T06:52:34.007808,15.84459333,.00101393,53.0271,147.7748,28.0774,332.0793,0,U,46576,999,31089,.10059123E-2,.241611E-2,0
STARLINK-1728,2020-070BC,2026-05-16T05:40:37.697088,15.66723958,.00113739,53.0342,156.1578,26.5158,333.6437,0,U,46582,999,31077,.68426608E-3,.73691E-3,0
STARLINK-1736,2020-070BF,2026-05-16T07:04:02.995104,15.86018298,.00097634,53.0318,138.8942,36.6477,323.5213,0,U,46585,999,31101,.97398207E-3,.252453E-2,0
STARLINK-1746,2020-070BJ,2026-05-16T04:14:44.526336,16.17743450,.00054551,53.0206,132.5002,25.3787,334.7517,0,U,46588,999,31109,.11552696E-2,.1815158E-1,.33218814E-2
GAOFEN-13 01,2020-071A,2026-05-16T06:24:38.551968,1.00275847,.00417067,0.4388,84.9845,123.3240,240.0201,0,U,46610,999,2060,0,-.351E-5,0
STARLINK-1716,2020-073C,2026-05-15T11:52:51.835296,15.80480565,.00044279,53.0394,229.7832,299.7680,60.2900,0,U,46672,999,30821,.60692613E-3,.118652E-2,0
STARLINK-1718,2020-073E,2026-05-16T07:00:29.734848,15.68601825,.0002271,53.0436,257.2778,231.0304,129.0510,0,U,46674,999,30789,.73139966E-3,.84954E-3,0
STARLINK-1781,2020-073R,2026-05-16T05:49:00.581376,15.68581434,.00025428,53.0460,272.9756,229.5567,130.5228,0,U,46685,999,30766,.77723138E-3,.90299E-3,0
STARLINK-1784,2020-073T,2026-05-15T12:21:36.964224,15.76049846,.00033623,53.0399,216.7061,8.5155,351.5921,0,U,46687,999,30839,.54925854E-3,.87527E-3,0
STARLINK-1788,2020-073V,2026-05-15T17:43:39.771264,15.76804908,.00051905,53.0364,247.0720,314.7064,45.3532,0,U,46689,999,30923,.60054218E-3,.99198E-3,0
STARLINK-1795,2020-073AC,2026-05-16T08:00:01.999872,15.87543870,.00111282,53.0331,203.2455,348.4100,268.7019,0,U,46696,999,602,.63973109E-3,.177156E-2,0
STARLINK-1797,2020-073AE,2026-05-16T00:16:29.695584,15.65441169,.00057249,53.0416,240.7010,323.8330,36.2297,0,U,46698,999,30810,.54664737E-3,.55524E-3,0
STARLINK-1801,2020-073AH,2026-05-16T08:00:01.999872,15.99609287,.00117028,53.0336,216.9623,359.5970,317.5206,0,U,46701,999,597,.96565518E-3,.496671E-2,.11759751E-3
STARLINK-1802,2020-073AJ,2026-05-16T01:37:14.891808,15.35863671,.00023915,53.1599,262.8915,306.9330,53.1454,0,U,46702,999,30781,.11936818E-2,.42116E-3,0
STARLINK-1805,2020-073AM,2026-05-15T18:25:59.927808,15.65146443,.00011691,53.0461,277.4614,253.3910,106.6976,0,U,46705,999,30756,.47422755E-3,.47449E-3,0
STARLINK-1807,2020-073AN,2026-05-15T19:41:44.876256,15.29082376,.00018459,53.0571,277.5643,353.2128,6.8845,0,U,46706,999,30757,.14857602E-2,.42405E-3,0
STARLINK-1810,2020-073AR,2026-05-16T01:48:50.527584,15.58918610,.00039138,53.0434,267.1522,322.5086,37.5652,0,U,46709,999,30773,.12191206E-2,.96995E-3,0
STARLINK-1815,2020-073AV,2026-05-16T08:00:01.999872,15.88178719,.00078595,53.0384,224.1527,329.8172,138.2430,0,U,46713,999,595,.95972135E-3,.277095E-2,0
STARLINK-1816,2020-073AW,2026-05-16T01:42:44.063712,16.11800768,.00136626,53.0253,216.8060,344.3197,15.7412,0,U,46714,999,30843,.98912008E-3,.1083603E-1,.74319862E-3
STARLINK-1817,2020-073AX,2026-05-15T19:11:01.274784,15.74800766,.00016766,53.0446,246.2264,17.5218,342.5858,0,U,46715,999,30800,.64439534E-3,.97413E-3,0
STARLINK-1821,2020-073BA,2026-05-15T18:45:32.978880,15.46898880,.00013047,53.0457,268.1370,21.0577,339.0483,0,U,46718,999,30770,.39263343E-3,.19692E-3,0
STARLINK-1826,2020-073BF,2026-05-15T21:56:01.521600,15.73226431,.00073102,53.0423,209.4965,20.5671,339.5640,0,U,46723,999,30853,.67353128E-3,.95236E-3,0
STARLINK-1828,2020-073BH,2026-05-15T17:54:55.283616,15.65667801,.00047437,53.0493,269.8270,264.7948,95.2526,0,U,46725,999,30767,.44038553E-3,.44962E-3,0
STARLINK-1830,2020-073BK,2026-05-15T22:10:14.018304,15.67784362,.00060536,53.0373,214.7329,319.9765,40.0803,0,U,46727,999,30846,.53478629E-3,.5977E-3,0
STARLINK-1892,2020-074E,2026-05-16T05:34:25.726944,15.64678758,.00049221,53.0414,325.6125,244.2207,115.8299,0,U,46743,999,30760,.18670458E-2,.188257E-2,0
STARLINK-1905,2020-074H,2026-05-15T21:56:49.611840,15.77909216,.00044096,53.0379,310.9617,218.8146,141.2558,0,U,46746,999,30777,.75488438E-3,.131647E-2,0
STARLINK-1911,2020-074L,2026-05-15T20:32:52.567872,16.06226256,.0010105,53.0345,298.9045,286.7376,73.3050,0,U,46749,999,30793,.7528E-3,.580229E-2,0
STARLINK-1922,2020-074Q,2026-05-15T21:40:29.008128,15.80359769,.00054056,53.0414,310.4754,232.1166,127.9367,0,U,46753,999,30778,.8088843E-3,.158259E-2,0
STARLINK-1928,2020-074V,2026-05-16T08:00:01.999872,15.83834751,.00060143,53.0392,307.8529,232.4801,293.0200,0,U,46758,999,601,.1072029E-2,.249646E-2,0
STARLINK-1835,2020-074AV,2026-05-16T04:32:28.028256,15.69896228,.00068068,53.0427,303.5476,206.6907,153.3760,0,U,46782,999,30790,.66319733E-3,.81272E-3,0
STARLINK-1882,2020-074AX,2026-05-15T20:52:31.830240,15.76835502,.00025919,53.0464,302.9002,306.3699,53.7081,0,U,46784,999,30788,.76490905E-3,.127048E-2,0
STARLINK-1893,2020-074AZ,2026-05-15T20:59:37.750272,15.60579247,.00055396,53.0464,299.0655,234.6212,125.4283,0,U,46786,999,30794,.57914302E-3,.48546E-3,0
STARLINK-1931,2020-074BD,2026-05-16T08:00:01.999872,15.82002726,.0005787,53.0386,307.3168,257.8128,268.8169,0,U,46790,999,595,.10125618E-2,.2154E-2,0
STARLINK-1942,2020-074BH,2026-05-14T22:31:26.009472,15.58977521,.00055127,53.0425,334.7288,197.6624,162.4197,0,U,46794,999,30736,.83337955E-3,.66056E-3,0
STARLINK-1944,2020-074BK,2026-05-15T20:44:12.592896,15.79644610,.00039704,53.0391,297.7453,234.2842,125.7810,0,U,46796,999,30795,.78073513E-3,.147565E-2,0
COSMOS 2547 [GLONASS-K],2020-075A,2026-05-16T00:50:05.326368,2.13102438,.00088943,64.5980,193.5508,241.7969,118.2028,0,U,46805,999,4322,0,.85E-6,0
YAOGAN-30 08A,2020-076A,2026-05-15T19:44:53.462400,15.02540307,.00005709,34.9945,288.4717,292.5833,67.4814,0,U,46807,999,30324,.11673737E-3,.1554E-4,0
YAOGAN-30 08B,2020-076B,2026-05-15T20:48:44.264736,15.02557488,.00003373,34.9949,287.9613,24.6656,335.4068,0,U,46808,999,30336,.11956855E-3,.1593E-4,0
YAOGAN-30 08C,2020-076C,2026-05-15T20:17:10.012992,15.02522295,.00054807,34.9968,287.9750,150.5937,209.5080,0,U,46809,999,30327,.10801409E-3,.1435E-4,0
TIANQI-6,2020-076D,2026-05-15T16:15:17.932032,15.06960214,.00107884,34.9989,247.9543,244.2245,115.7351,0,U,46810,999,30367,.13585794E-3,.2047E-4,0
CE-SAT IIB,2020-077F,2026-05-15T15:18:51.254208,15.91253699,.00031619,97.2023,216.2529,222.9967,137.1060,0,U,46818,999,31009,.36184175E-3,.11403E-2,.6839132E-5
NAVSTAR 80 (USA 309),2020-078A,2026-05-15T14:22:06.179232,2.00564727,.00721039,53.9843,212.1007,206.2667,325.0236,0,U,46826,999,4085,0,.49E-6,0
RISAT-2BR2,2020-081A,2026-05-16T03:54:28.767744,15.01417196,.00126375,36.8985,54.4248,261.5282,98.4027,0,U,46905,999,30265,.11559058E-3,.1444E-4,0
KSM1-C,2020-081B,2026-05-16T07:19:10.833600,15.26195934,.00027659,36.8940,255.6889,287.4529,72.5918,0,U,46906,999,30429,.25716637E-3,.6716E-4,0
KSM1-D,2020-081C,2026-05-16T06:22:00.407136,15.24255831,.00042438,36.8968,264.3390,334.2043,25.8493,0,U,46907,999,30422,.19487361E-3,.4773E-4,0
KSM1-A,2020-081H,2026-05-16T07:00:44.585280,15.25444673,.00021926,36.8962,257.9221,38.0170,322.0734,0,U,46912,999,30430,.19504094E-3,.4953E-4,0
R2,2020-081J,2026-05-15T17:07:38.508096,15.24946141,.00069828,36.8979,261.3079,0.0484,0.0265,0,U,46913,999,30702,.19253982E-3,.4816E-4,0
KSM1-B,2020-081K,2026-05-15T19:20:22.111008,15.24050062,.00054437,36.9019,267.6934,356.2593,3.8114,0,U,46914,999,30724,.1889515E-3,.4596E-4,0
TIANTONG-1 2,2020-082A,2026-05-16T06:26:53.335968,1.00273791,.00015371,0.8347,323.1145,71.3260,61.2241,0,U,46916,999,2033,0,-.345E-5,0
DRAGRACER 2 (AUGURY),2020-085AC,2026-05-16T06:53:08.022624,15.68797620,.00049057,97.5810,329.8369,38.9503,321.2110,0,U,46955,999,30686,.2975201E-3,.33953E-3,0
SENTINEL-6A,2020-086A,2026-05-16T05:31:55.262208,12.80931299,.00078806,66.0404,201.4270,270.2071,89.8041,0,U,46984,999,25623,.14894549E-3,-.27E-6,0
STARLINK-1777,2020-088A,2026-05-15T19:02:04.152768,15.64898059,.00047853,53.0471,317.5371,186.6603,173.4348,0,U,47122,999,30255,.47023806E-3,.46593E-3,0
STARLINK-1812,2020-088E,2026-05-16T06:58:40.558080,15.19166605,.0002927,53.0808,351.2119,106.5159,253.6158,0,U,47126,999,30213,.12801949E-2,.27035E-3,0
STARLINK-1845,2020-088P,2026-05-16T04:24:32.601888,15.67609610,.00040819,53.0472,307.7666,172.9721,187.1353,0,U,47135,999,30272,.73381169E-3,.81821E-3,0
STARLINK-1856,2020-088X,2026-05-16T08:00:01.999872,15.65968724,.00010941,53.0466,305.4025,354.8118,273.6235,0,U,47143,999,596,.82914445E-3,.86589E-3,0
